STARLINK-11324 [DTC]    
1 61879U 24204F   24352.86193487  .00018331  00000+0  15560-3 0  9990
2 61879  53.1565  39.0916 0002240  85.2526 274.8748 15.69745730  6735
STARLINK-11328 [DTC]    
1 61880U 24204G   24352.85702198  .00000458  00000+0  86275-5 0  9990
2 61880  53.1581  39.0617 0000355 295.4359  64.6622 15.69723647  6736
STARLINK-11329 [DTC]    
1 61881U 24204H   24352.85212743  .00000137  00000+0  59910-5 0  9993
2 61881  53.1575  39.0292 0001563  90.8307 269.2890 15.69715243  6734
STARLINK-11398 [DTC]    
1 61882U 24204J   24352.84721871  .00000753  00000+0  11072-4 0  9990
2 61882  53.1578  38.9967 0001090  97.9137 262.2004 15.69716310  6735
STARLINK-11383 [DTC]    
1 61883U 24204K   24352.83741061  .00001689  00000+0  18799-4 0  9995
2 61883  53.1589  38.9258 0001624  70.9374 289.1820 15.69719718  6737
STARLINK-11359 [DTC]    
1 61884U 24204L   24352.84232711  .00010427  00000+0  90875-4 0  9999
2 61884  53.1576  38.9610 0001532  92.4390 267.6803 15.69693163  6738
STARLINK-11301 [DTC]    
1 61885U 24204M   24352.57782809  .00001328  00000+0  15821-4 0  9996
2 61885  53.1595  40.1535 0001266  84.8836 275.2326 15.69711083  6697
STARLINK-11351 [DTC]    
1 61886U 24204N   24352.57291746  .00001582  00000+0  17907-4 0  9991
2 61886  53.1572  40.1191 0001186  28.3266 331.7816 15.69718735  6695
STARLINK-32410          
1 61887U 24204P   24352.62821417  .00002601  00000+0  74952-4 0  9998
2 61887  53.1603  44.8358 0000792  30.7233 329.3818 15.39632035  6634
STARLINK-32377          
1 61888U 24204Q   24352.85537033  .00002626  00000+0  75597-4 0  9995
2 61888  53.1611  43.4010 0001163 102.7288 257.3847 15.39628514  6669
STARLINK-32292          
1 61889U 24204R   24352.86467068  .00001034  00000+0  35848-4 0  9994
2 61889  53.1604  43.4632 0001947  90.5153 269.6075 15.39609560  6677
STARLINK-32501          
1 61890U 24204S   24352.84608094  .00003190  00000+0  89673-4 0  9990
2 61890  53.1644  43.3431 0001225  78.4452 281.6690 15.39630552  6677
STARLINK-32383          
1 61891U 24204T   24352.91667824 -.00153765  00000+0 -39006-2 0  9994
2 61891  53.1592  42.8597 0001924 114.7027 354.1429 15.39706906  5936
STARLINK-32239          
1 61892U 24204U   24352.86930168  .00002595  00000+0  74837-4 0  9998
2 61892  53.1631  43.4923 0001631 107.8086 252.3096 15.39624232  6676
STARLINK-32489          
1 61893U 24204V   24352.87858576  .00001863  00000+0  56526-4 0  9994
2 61893  53.1614  43.5511 0000674  54.7636 305.3432 15.39627154  6667
STARLINK-32303          
1 61912U 24207A   24352.91667824 -.01510180  00000+0 -46408-1 0  9993
2 61912  42.9990 292.8754 0001292 250.8853  29.1450 15.36233729  5542
STARLINK-32434          
1 61913U 24207B   24352.91667824  .00045801  00000+0  14486-2 0  9996
2 61913  43.0000 293.3051 0001453 252.5893 210.3280 15.32063950  6050
STARLINK-32460          
1 61914U 24207C   24352.91667824  .00032524  00000+0  10320-2 0  9998
2 61914  42.9997 293.1832 0001561 267.3726 245.2589 15.32095809  6055
STARLINK-32559          
1 61915U 24207D   24352.91667824  .00033809  00000+0  10737-2 0  9998
2 61915  42.9992 293.0632 0001784 251.7717 310.6327 15.32052015  6051
STARLINK-32541          
1 61916U 24207E   24352.91667824 -.01528067  00000+0 -41225-1 0  9992
2 61916  42.9992 292.7316 0000962 231.7445 107.7688 15.40229468  6063
STARLINK-32544          
1 61917U 24207F   24352.91667824 -.01513602  00000+0 -50082-1 0  9993
2 61917  42.9991 292.9462 0001155 253.7902 356.4927 15.33950046  6057
STARLINK-32555          
1 61918U 24207G   24352.91667824 -.01520222  00000+0 -38716-1 0  9990
2 61918  42.9993 292.6803 0001589 268.0267  92.3768 15.41925755  6057
STARLINK-32547          
1 61919U 24207H   24352.91667824  .00086341  00000+0  27085-2 0  9995
2 61919  42.9995 293.1223 0001396 259.1659 278.3585 15.32062877  4759
STARLINK-32616          
1 61920U 24207J   24352.91667824 -.01513678  00000+0 -44652-1 0  9996
2 61920  42.9991 292.8005 0001397 263.5262  47.1815 15.37493760  6058
STARLINK-32605          
1 61921U 24207K   24352.91667824 -.00090044  00000+0 -28669-2 0  9994
2 61921  42.9991 293.0009 0001316 268.8243 318.4485 15.32142577  6053
STARLINK-32579          
1 61922U 24207L   24352.91667824 -.01514861  00000+0 -43210-1 0  9992
2 61922  42.9992 292.7555 0001236 261.6819  67.1898 15.38519997  6054
STARLINK-32537          
1 61923U 24207M   24352.91667824 -.01521159  00000+0 -37897-1 0  9995
2 61923  42.9994 292.6364 0001603 268.1174 109.8259 15.42577822  6059
STARLINK-32564          
1 61924U 24207N   24352.91667824 -.01518540  00000+0 -40342-1 0  9995
2 61924  42.9993 292.6776 0001595 267.7357  93.0796 15.40665158  5950
STARLINK-32536          
1 61925U 24207P   24352.91667824 -.01521680  00000+0 -37375-1 0  9997
2 61925  42.9994 292.6175 0001631 264.6667 120.7449 15.42997220  6051
STARLINK-32624          
1 61926U 24207Q   24352.91667824  .00036865  00000+0  11684-2 0  9997
2 61926  42.9998 293.2110 0001669 267.6599 232.5671 15.32081865  6057
STARLINK-32622          
1 61927U 24207R   24352.91667824  .00068751  00000+0  21622-2 0  9990
2 61927  42.9995 293.1501 0001289 253.7451 271.3198 15.32082999  6053
STARLINK-32620          
1 61928U 24207S   24352.91667824 -.01511635  00000+0 -47811-1 0  9995
2 61928  42.9991 292.8327 0001348 257.9504  38.1549 15.35346844  6057
STARLINK-32609          
1 61929U 24207T   24352.91667824 -.01304519  00000+0 -39421-1 0  9995
2 61929  42.9990 292.9035 0001144 261.4570   5.1404 15.36304884  6054
STARLINK-32567          
1 61930U 24207U   24352.91667824  .00104478  00000+0  24775-2 0  9993
2 61930  42.9993 293.0487 0001581 257.5872 308.8107 15.40660109  6062
STARLINK-32420          
1 61931U 24207V   24352.91667824  .00080026  00000+0  25130-2 0  9992
2 61931  42.9993 293.0887 0001255 275.2008 274.7835 15.32064805  6064
STARLINK-32354          
1 61932U 24207W   24352.91667824 -.01517400  00000+0 -42167-1 0  9995
2 61932  42.9994 292.6774 0001627 266.6125  93.6030 15.39311744  6062
STARLINK-32361          
1 61933U 24207X   24352.91667824 -.00188040  00000+0 -39864-2 0  9990
2 61933  42.9993 292.5564 0002037 249.1272 160.3632 15.44974384  6064
STARLINK-32563          
1 61934U 24207Y   24352.91667824  .00091683  00000+0  28747-2 0  9993
2 61934  42.9991 293.0278 0001141 265.4121 309.4793 15.32049413  6067
STARLINK-32500          
1 61935U 24207Z   24352.91667824 -.01514299  00000+0 -45985-1 0  9992
2 61935  42.9992 292.7543 0001498 265.7822  62.2412 15.36606329  6067
STARLINK-11407 [DTC]    
1 61939U 24209A   24352.89707631  .00007495  00000+0  49728-4 0  9990
2 61939  53.1571  56.0356 0001616  84.5027 275.6178 15.76741570  6530
STARLINK-11337 [DTC]    
1 61940U 24209B   24352.89220931  .00003853  00000+0  27554-4 0  9992
2 61940  53.1572  56.0016 0001850  84.4441 275.6791 15.76711250  6516
STARLINK-11353 [DTC]    
1 61941U 24209C   24352.88730282  .00003085  00000+0  22822-4 0  9997
2 61941  53.1564  55.9703 0000237 334.0274  26.0735 15.76737977  6470
STARLINK-11320 [DTC]    
1 61942U 24209D   24352.88239550  .00030554  00000+0  18944-3 0  9990
2 61942  53.1569  55.9366 0001670  38.4830 321.6310 15.76795913  6473
STARLINK-11425 [DTC]    
1 61943U 24209E   24352.49721704  .00005255  00000+0  36061-4 0  9996
2 61943  53.1548  57.8026 0001339  96.3595 263.7578 15.76746384  6412
STARLINK-11422 [DTC]    
1 61944U 24209F   24352.68250883  .00002158  00000+0  17186-4 0  9999
2 61944  53.1540  56.8233 0001752  75.4906 284.6309 15.76726406  6447
STARLINK-11421 [DTC]    
1 61945U 24209G   24352.67762009  .00004293  00000+0  30204-4 0  9995
2 61945  53.1561  56.7902 0000955   0.1052 359.9969 15.76732536  6443
STARLINK-11410 [DTC]    
1 61946U 24209H   24352.90673592  .00000253  00000+0  55391-5 0  9997
2 61946  53.1547  55.3674 0000949  81.3993 278.7135 15.76727987  6523
STARLINK-11390 [DTC]    
1 61947U 24209J   24352.67273638  .00002143  00000+0  17076-4 0  9996
2 61947  53.1549  56.7550 0000286  66.4702 293.6349 15.76727958  6486
STARLINK-11414 [DTC]    
1 61948U 24209K   24352.91162095  .00010274  00000+0  66654-4 0  9998
2 61948  53.1541  55.3992 0001189  97.5674 262.5482 15.76743167  6528
STARLINK-11424 [DTC]    
1 61949U 24209L   24352.66296983  .00010878  00000+0  70466-4 0  9991
2 61949  53.1539  56.6926 0000480  53.1314 306.9751 15.76696875  6445
STARLINK-11423 [DTC]    
1 61950U 24209M   24352.68103490  .00010649  00000+0  78305-4 0  9991
2 61950  53.1599  56.0703 0000060  76.8055 283.2972 15.73760744  6499
STARLINK-11395 [DTC]    
1 61951U 24209N   24352.90185629  .00006084  00000+0  41126-4 0  9990
2 61951  53.1563  55.3324 0001067  62.1613 297.9515 15.76739385  6482
STARLINK-32572          
1 61952U 24209P   24352.90131379  .00010682  00000+0  27681-3 0  9992
2 61952  53.1593  59.6776 0002242  71.5677 288.5571 15.39603417  6465
STARLINK-32585          
1 61953U 24209Q   24352.91667824 -.00130898  00000+0 -33087-2 0  9993
2 61953  53.1601  59.2517 0001123  86.4041 179.2060 15.39713299  6067
STARLINK-32574          
1 61954U 24209R   24352.91667824 -.00058146  00000+0 -14541-2 0  9993
2 61954  53.1600  59.0970 0001001  86.1030 256.7529 15.39634280  4687
STARLINK-32583          
1 61955U 24209S   24352.91667824 -.01527055  00000+0 -37409-1 0  9992
2 61955  53.1594  59.0093 0001107  68.6499 318.2343 15.43310068  5956
STARLINK-32273          
1 61956U 24209T   24350.52124747 -.00012484  00000+0 -21746-3 0  9993
2 61956  53.1598  70.4207 0002688  91.9038 268.2279 15.49210082  6109
STARLINK-32359          
1 61957U 24209U   24352.91667824 -.00175110  00000+0 -44549-2 0  9998
2 61957  53.1600  59.1479 0001470 114.6534 202.4803 15.39714563  5835
STARLINK-32566          
1 61958U 24209V   24352.55816299  .00001096  00000+0  37383-4 0  9990
2 61958  53.1606  61.0920 0001939  76.4978 283.6243 15.39621868  6433
